satname,norad_id,inclination_deg,eccentricity,mean_motion_rev_per_day,perigee_km,apogee_km,l1,l2
STARLINK-1392,45677,53.1561,0.0001423,15.29353475,476.7682144522623,478.71939812973324,1 45677U 20035W   26088.06604501  .00008232  00000+0  29730-3 0  9993,2 45677  53.1561 334.8689 0001423  96.6249 263.4914 15.29353475321727
STARLINK-1394,45679,53.0483,0.0003778,15.53085762,405.159099708374,410.2864953713961,1 45679U 20035Y   26088.07030418  .00089115  00000+0  13914-2 0  9991,2 45679  53.0483 303.3489 0003778 212.2235 147.8544 15.53085762322167
STARLINK-1402,45685,53.0465,0.0002659,15.47705378,421.631896459603,425.248975340015,1 45685U 20035AE  26087.97943448  .00078413  00000+0  14844-2 0  9994,2 45685  53.0465 291.3324 0002659 270.6816  89.3886 15.47705378322331
STARLINK-1404,45686,53.1603,0.0001565,15.37121031,453.5583677791401,455.6970231288169,1 45686U 20035AF  26088.25003471  .00004768  00000+0  13977-3 0  9999,2 45686  53.1603 318.6520 0001565  94.0703 143.0700 15.37121031  5907
STARLINK-1413,45689,53.1609,0.0001311,15.30208268,474.29191155291574,476.0888539926782,1 45689U 20035AJ  26088.03536397  .00003406  00000+0  12705-3 0  9992,2 45689  53.1609 319.7213 0001311  88.7940 271.3211 15.30208268321857
STARLINK-1417,45693,53.053,0.0001615,15.13443973,524.5916010731808,526.8215425468752,1 45693U 20035AN  26087.95143242  .00010051  00000+0  57168-3 0  9996,2 45693  53.0530 326.9361 0001615 299.0485  61.0345 15.13443973321819
STARLINK-1420,45695,53.0513,0.0004135,15.57229939,392.87723587761957,398.4791810550214,1 45695U 20035AQ  26087.82460055  .00085982  00000+0  11537-2 0  9992,2 45695  53.0513 289.8414 0004135 198.8121 161.2737 15.57229939322339
STARLINK-1422,45696,53.1598,0.0001307,15.30215148,474.27411339081664,476.065567798948,1 45696U 20035AR  26087.91208899 -.00002635  00000+0 -76823-4 0  9996,2 45696  53.1598 320.2979 0001307  76.5304 283.5843 15.30215148321910
STARLINK-1351,45697,53.0493,0.0004147,15.55836463,396.9114458764934,402.53300231695994,1 45697U 20035AS  26088.01072855  .00097055  00000+0  13686-2 0  9994,2 45697  53.0493 288.3342 0004147 220.7599 139.3101 15.55836463322378
STARLINK-1400,45700,53.0488,0.0006959,15.53816974,400.87292344866364,410.31451986706634,1 45700U 20035AV  26088.06860418  .00093763  00000+0  14236-2 0  9998,2 45700  53.0488 289.6605 0006959 169.0066 191.1097 15.53816974322351
STARLINK-1403,45701,53.1574,0.0001522,15.29366866,476.6603276105925,478.74724554602835,1 45701U 20035AW  26088.00847574  .00003223  00000+0  12393-3 0  9996,2 45701  53.1574 306.8907 0001522  83.7522 276.3652 15.29366866322105
STARLINK-1407,45703,53.0316,0.000513,15.64372722,371.57902305233256,378.50778614745104,1 45703U 20035AY  26088.08362270  .00143976  00000+0  14544-2 0  9990,2 45703  53.0316 220.9539 0005130 181.8696 178.2299 15.64372722323327
STARLINK-1411,45706,53.0403,0.0003061,15.66153598,367.85748387022613,371.9886462420527,1 45706U 20035BB  26087.79903083  .00131972  00000+0  12445-2 0  9994,2 45706  53.0403 247.7690 0003061 244.7431 115.3267 15.66153598322910
STARLINK-1423,45710,53.0496,0.0006997,15.56253082,393.77089732712557,403.25414066400845,1 45710U 20035BF  26087.87742998  .00064738  00000+0  90428-3 0  9997,2 45710  53.0496 289.2939 0006997 191.1209 168.9648 15.56253082322334
STARLINK-1433,45711,53.0484,0.0006682,15.58423422,387.69543360145144,396.74333787535215,1 45711U 20035BG  26088.00558814  .00103140  00000+0  13186-2 0  9992,2 45711  53.0484 287.4330 0006682 183.8096 176.2866 15.58423422322377
STARLINK-1434,45712,53.0529,0.0004166,15.28397334,477.7454437260867,483.46014572305194,1 45712U 20035BH  26087.93417553  .00046279  00000+0  16535-2 0  9998,2 45712  53.0529 290.7771 0004166 156.5530 203.5660 15.28397334322330
STARLINK-1465,45731,53.0492,0.0005779,15.52992188,404.0736723906848,411.9170841935147,1 45731U 20038B   26088.09820531  .00099681  00000+0  15582-2 0  9990,2 45731  53.0492 129.8144 0005779   8.3243 351.7861 15.52992188319398
STARLINK-1471,45735,53.0466,0.0001659,15.4996229,415.7089936794973,417.96356581371856,1 45735U 20038F   26088.19086125  .00038845  00000+0  68700-3 0  9994,2 45735  53.0466  48.5206 0001659  24.5680 335.5407 15.49962290320550
STARLINK-1480,45741,53.0529,0.0001793,15.54790831,401.5449110407553,403.97654096530005,1 45741U 20038M   26088.06811044  .00090348  00000+0  13258-2 0  9996,2 45741  53.0529 124.1996 0001793  60.0376 300.0811 15.54790831319482
STARLINK-1500,45744,53.0354,0.0003104,15.35821666,456.358922870907,460.60309533095733,1 45744U 20038Q   26088.20634267  .00033141  00000+0  94387-3 0  9996,2 45744  53.0354 101.1273 0003104   3.7749 356.3275 15.35821666319815
STARLINK-1504,45746,53.0224,0.0001097,15.54487678,402.89833401061514,404.38625638798203,1 45746U 20038S   26088.17582116  .00048224  00000+0  72267-3 0  9990,2 45746  53.0224  48.0835 0001097  57.0224 303.0890 15.54487678320541
STARLINK-1506,45747,53.076,0.000316,15.26594748,483.831813981471,488.1699491226118,1 45747U 20038T   26087.77907625  .00007518  00000+0  29618-3 0  9995,2 45747  53.0760 114.0350 0003160 339.1518  20.9350 15.26594748319603
STARLINK-1464,45751,53.0501,0.0004092,15.45828529,426.15923324463347,431.73014890060676,1 45751U 20038X   26088.03876413  .00066791  00000+0  13520-2 0  9992,2 45751  53.0501 112.4823 0004092   4.4968 355.6074 15.45828529319647
STARLINK-1477,45754,53.0487,0.0002791,15.15307626,518.1195092859662,521.9700743621624,1 45754U 20038AA  26087.83116692  .00010700  00000+0  57670-3 0  9992,2 45754  53.0487 125.8862 0002791  37.6616 322.4572 15.15307626319435
STARLINK-1478,45755,53.0488,0.0004366,15.58414935,389.28801792351896,395.1999145832515,1 45755U 20038AB  26088.21286411  .00109046  00000+0  13939-2 0  9994,2 45755  53.0488 103.2404 0004366   0.8833 359.2185 15.58414935319776
STARLINK-1493,45759,53.0507,0.0004725,15.5333048,403.804082206555,410.21604618221863,1 45759U 20038AF  26088.22124718  .00098175  00000+0  15167-2 0  9995,2 45759  53.0507 110.5207 0004725  60.6268 299.5213 15.53330480319673
STARLINK-1494,45760,53.0486,0.0006528,15.77985955,331.7646159402966,340.53078604591246,1 45760U 20038AG  26088.15895718  .00162356  00000+0  92299-3 0  9999,2 45760  53.0486  54.5314 0006528  74.5973 285.5768 15.77985955320465
STARLINK-1502,45764,53.0511,0.0005983,15.49899906,412.9530702494085,421.0841534545507,1 45764U 20038AL  26087.78942891  .00078815  00000+0  13810-2 0  9993,2 45764  53.0511 114.5886 0005983  50.6428 309.5109 15.49899906319590
STARLINK-1470,45772,53.0449,0.0003272,15.29524225,474.9904773778999,479.4766318688462,1 45772U 20038AU  26088.22087757  .00050563  00000+0  17433-2 0  9998,2 45772  53.0449  83.5485 0003272  59.1984 300.9337 15.29524225320068
STARLINK-1482,45773,53.1587,0.0002471,15.31460389,469.7618222506817,473.1468902989518,1 45773U 20038AV  26088.20288103  .00020985  00000+0  69121-3 0  9992,2 45773  53.1587 100.3050 0002471  69.7404 290.3863 15.31460389319835
STARLINK-1496,45780,53.0514,0.0001833,15.5127542,411.7563649732856,414.2459962302946,1 45780U 20038BC  26088.18151162  .00106640  00000+0  17716-2 0  9996,2 45780  53.0514  84.3203 0001833 336.6918  23.4007 15.51275420320031
STARLINK-1513,45786,53.161,0.0001241,15.30205921,474.3468916397442,476.0478892354513,1 45786U 20038BJ  26088.21961257 -.00000360  00000+0 -28974-7 0  9997,2 45786  53.1610 100.4372 0001241  86.3272 273.7871 15.30205921319838
STARLINK-1522,46027,53.0652,0.0002468,15.0992355,534.726874896538,538.1399068414703,1 46027U 20055A   26088.14770548  .00027279  00000+0  16749-2 0  9996,2 46027  53.0652  38.7303 0002468  98.2071 261.9200 15.09923550311827
STARLINK-1523,46028,53.1571,0.0002595,15.29454787,475.6620220153645,479.2200670204693,1 46028U 20055B   26088.11664995  .00022061  00000+0  77221-3 0  9999,2 46028  53.1571  36.4658 0002595  79.6212 280.5081 15.29454787311870
STARLINK-1526,46029,53.1564,0.000161,15.29384762,476.5465225903081,478.75408610230716,1 46029U 20055C   26088.17123022  .00016456  00000+0  58083-3 0  9993,2 46029  53.1564  36.1792 0001610  99.3601 260.7582 15.29384762311878
STARLINK-1555,46032,53.1586,0.0001519,15.30185504,474.21732145009446,476.2993829580946,1 46032U 20055F   26088.09455742  .00002228  00000+0  87358-4 0  9995,2 46032  53.1586  36.5653 0001519 119.6673 240.4479 15.30185504311863
STARLINK-1556,46033,53.157,0.0001075,15.29347319,477.0251948545383,478.4992131834024,1 46033U 20055G   26088.13431968  .00028729  00000+0  10043-2 0  9994,2 46033  53.1570  36.3069 0001075  81.1566 278.9556 15.29347319311849
STARLINK-1557,46034,53.1574,0.0001515,15.29378424,476.63059070660074,478.7078999989426,1 46034U 20055H   26088.12807850  .00013096  00000+0  46505-3 0  9995,2 46034  53.1574  36.2361 0001515  85.0511 275.0662 15.29378424311847
STARLINK-1558,46035,53.1571,0.0001643,15.2974955,475.43413516915007,477.6865887222857,1 46035U 20055J   26088.15347826  .00110741  00000+0  37474-2 0  9990,2 46035  53.1571  36.2995 0001643  95.9972 264.1216 15.29749550311870
STARLINK-1560,46036,53.1579,0.0001776,15.29377009,476.4558821341552,478.8910660145457,1 46036U 20055K   26088.12485150  .00013998  00000+0  49620-3 0  9994,2 46036  53.1579  36.2922 0001776  73.6072 286.5124 15.29377009311872
STARLINK-1567,46038,53.089,0.0001397,15.55155419,400.75373979187043,402.64802649642115,1 46038U 20055M   26088.22802374  .01287027  00000+0  16961-1 0  9995,2 46038  53.0890  34.5427 0001397 126.8188 233.2951 15.55155419311895
STARLINK-1569,46039,53.1586,0.000152,15.30209957,474.143634777648,476.22704476893887,1 46039U 20055N   26088.15672172  .00013087  00000+0  45305-3 0  9997,2 46039  53.1586  36.2822 0001520 109.5932 250.5233 15.30209957311862
STARLINK-1582,46043,53.1606,0.0001431,15.3021778,474.18127497389287,476.1426891425581,1 46043U 20055S   26088.16304337  .00019974  00000+0  68431-3 0  9994,2 46043  53.1606  36.2430 0001431  84.2801 275.8362 15.30217780311866
